{
  "type": "FeatureCollection",
  "features": [
    {
      "type": "Feature",
      "properties": {
        "norad_id": 29914,
        "name": "FENGYUN 1C DEB",
        "group": "fengyun-1c-debris",
        "lat": -63.609962474326,
        "lon": 169.48744655522708,
        "alt_km": 898.4030703243061,
        "timestamp": "2025-12-04T23:34:05.994830+00:00",
        "meta_object_name": "FENGYUN 1C DEB",
        "meta_object_id": "1999-025HL",
        "meta_epoch": "2025-12-04T16:09:51.155136",
        "meta_mean_motion": 14.03126874,
        "meta_eccentricity": 0.0036286,
        "meta_inclination": 98.8456,
        "meta_ra_of_asc_node": 7.4781,
        "meta_arg_of_pericenter": 137.3914,
        "meta_mean_anomaly": 349.7198,
        "meta_ephemeris_type": 0,
        "meta_classification_type": "U",
        "meta_norad_cat_id": 29914,
        "meta_element_set_no": 999,
        "meta_rev_at_epoch": 96673,
        "meta_bstar": 0.00038887,
        "meta_mean_motion_dot": 5.66e-06,
        "meta_mean_motion_ddot": 0,
        "tle_line1": "1 29914U 99025HL  25338.67350874  .00000566  00000+0  38887-3 0  9994",
        "tle_line2": "2 29914  98.8456   7.4781 0036286 137.3914 349.7198 14.03126874966735"
      },
      "geometry": {
        "type": "Point",
        "coordinates": [
          169.48744655522708,
          -63.609962474326
        ]
      }
    },
    {
      "type": "Feature",
      "properties": {
        "norad_id": 29916,
        "name": "FENGYUN 1C DEB",
        "group": "fengyun-1c-debris",
        "lat": 80.43787080286383,
        "lon": -107.21591337169312,
        "alt_km": 1239.467771105753,
        "timestamp": "2025-12-04T23:34:05.994840+00:00",
        "meta_object_name": "FENGYUN 1C DEB",
        "meta_object_id": "1999-025HN",
        "meta_epoch": "2025-12-04T07:47:41.062848",
        "meta_mean_motion": 13.56968857,
        "meta_eccentricity": 0.0271037,
        "meta_inclination": 99.1953,
        "meta_ra_of_asc_node": 358.1125,
        "meta_arg_of_pericenter": 280.0767,
        "meta_mean_anomaly": 203.2522,
        "meta_ephemeris_type": 0,
        "meta_classification_type": "U",
        "meta_norad_cat_id": 29916,
        "meta_element_set_no": 999,
        "meta_rev_at_epoch": 93338,
        "meta_bstar": 0.0011133,
        "meta_mean_motion_dot": 9.61e-06,
        "meta_mean_motion_ddot": 0,
        "tle_line1": "1 29916U 99025HN  25338.32478082  .00000961  00000+0  11133-2 0  9993",
        "tle_line2": "2 29916  99.1953 358.1125 0271037 280.0767 203.2522 13.56968857933380"
      },
      "geometry": {
        "type": "Point",
        "coordinates": [
          -107.21591337169312,
          80.43787080286383
        ]
      }
    },
    {
      "type": "Feature",
      "properties": {
        "norad_id": 29917,
        "name": "FENGYUN 1C DEB",
        "group": "fengyun-1c-debris",
        "lat": 9.945489589640312,
        "lon": 22.777738447490634,
        "alt_km": 850.041298834346,
        "timestamp": "2025-12-04T23:34:05.994851+00:00",
        "meta_object_name": "FENGYUN 1C DEB",
        "meta_object_id": "1999-025HP",
        "meta_epoch": "2025-12-04T14:08:22.195392",
        "meta_mean_motion": 13.70384994,
        "meta_eccentricity": 0.022252,
        "meta_inclination": 98.8765,
        "meta_ra_of_asc_node": 200.8446,
        "meta_arg_of_pericenter": 146.0101,
        "meta_mean_anomaly": 245.6213,
        "meta_ephemeris_type": 0,
        "meta_classification_type": "U",
        "meta_norad_cat_id": 29917,
        "meta_element_set_no": 999,
        "meta_rev_at_epoch": 94019,
        "meta_bstar": 0.0015533,
        "meta_mean_motion_dot": 1.597e-05,
        "meta_mean_motion_ddot": 0,
        "tle_line1": "1 29917U 99025HP  25338.58914578  .00001597  00000+0  15533-2 0  9991",
        "tle_line2": "2 29917  98.8765 200.8446 0222520 146.0101 245.6213 13.70384994940197"
      },
      "geometry": {
        "type": "Point",
        "coordinates": [
          22.777738447490634,
          9.945489589640312
        ]
      }
    },
    {
      "type": "Feature",
      "properties": {
        "norad_id": 29918,
        "name": "FENGYUN 1C DEB",
        "group": "fengyun-1c-debris",
        "lat": 34.929791912571076,
        "lon": 54.990143086812765,
        "alt_km": 772.3434775883143,
        "timestamp": "2025-12-04T23:34:05.994861+00:00",
        "meta_object_name": "FENGYUN 1C DEB",
        "meta_object_id": "1999-025HQ",
        "meta_epoch": "2025-12-04T17:18:30.060000",
        "meta_mean_motion": 14.33496361,
        "meta_eccentricity": 0.0012678,
        "meta_inclination": 98.856,
        "meta_ra_of_asc_node": 60.9744,
        "meta_arg_of_pericenter": 342.2934,
        "meta_mean_anomaly": 147.8079,
        "meta_ephemeris_type": 0,
        "meta_classification_type": "U",
        "meta_norad_cat_id": 29918,
        "meta_element_set_no": 999,
        "meta_rev_at_epoch": 97679,
        "meta_bstar": 0.0033252,
        "meta_mean_motion_dot": 9.164e-05,
        "meta_mean_motion_ddot": 0,
        "tle_line1": "1 29918U 99025HQ  25338.72118125  .00009164  00000+0  33252-2 0  9998",
        "tle_line2": "2 29918  98.8560  60.9744 0012678 342.2934 147.8079 14.33496361976792"
      },
      "geometry": {
        "type": "Point",
        "coordinates": [
          54.990143086812765,
          34.929791912571076
        ]
      }
    },
    {
      "type": "Feature",
      "properties": {
        "norad_id": 29919,
        "name": "FENGYUN 1C DEB",
        "group": "fengyun-1c-debris",
        "lat": -71.61294663186283,
        "lon": -72.51698436585576,
        "alt_km": 988.8204971354808,
        "timestamp": "2025-12-04T23:34:05.994872+00:00",
        "meta_object_name": "FENGYUN 1C DEB",
        "meta_object_id": "1999-025HR",
        "meta_epoch": "2025-12-04T08:45:02.037024",
        "meta_mean_motion": 13.85118183,
        "meta_eccentricity": 0.0137774,
        "meta_inclination": 98.4788,
        "meta_ra_of_asc_node": 133.5877,
        "meta_arg_of_pericenter": 6.7687,
        "meta_mean_anomaly": 51.3332,
        "meta_ephemeris_type": 0,
        "meta_classification_type": "U",
        "meta_norad_cat_id": 29919,
        "meta_element_set_no": 999,
        "meta_rev_at_epoch": 95419,
        "meta_bstar": 0.00026422,
        "meta_mean_motion_dot": 2.84e-06,
        "meta_mean_motion_ddot": 0,
        "tle_line1": "1 29919U 99025HR  25338.36460691  .00000284  00000+0  26422-3 0  9993",
        "tle_line2": "2 29919  98.4788 133.5877 0137774   6.7687  51.3332 13.85118183954197"
      },
      "geometry": {
        "type": "Point",
        "coordinates": [
          -72.51698436585576,
          -71.61294663186283
        ]
      }
    },
    {
      "type": "Feature",
      "properties": {
        "norad_id": 29920,
        "name": "FENGYUN 1C DEB",
        "group": "fengyun-1c-debris",
        "lat": -24.376222942339687,
        "lon": -162.0976392208999,
        "alt_km": 809.5342004453232,
        "timestamp": "2025-12-04T23:34:05.994882+00:00",
        "meta_object_name": "FENGYUN 1C DEB",
        "meta_object_id": "1999-025HS",
        "meta_epoch": "2025-12-04T13:25:06.746304",
        "meta_mean_motion": 14.03608319,
        "meta_eccentricity": 0.0125636,
        "meta_inclination": 98.391,
        "meta_ra_of_asc_node": 193.6771,
        "meta_arg_of_pericenter": 304.1431,
        "meta_mean_anomaly": 54.7874,
        "meta_ephemeris_type": 0,
        "meta_classification_type": "U",
        "meta_norad_cat_id": 29920,
        "meta_element_set_no": 999,
        "meta_rev_at_epoch": 96173,
        "meta_bstar": 0.0024403,
        "meta_mean_motion_dot": 4.069e-05,
        "meta_mean_motion_ddot": 0,
        "tle_line1": "1 29920U 99025HS  25338.55910586  .00004069  00000+0  24403-2 0  9990",
        "tle_line2": "2 29920  98.3910 193.6771 0125636 304.1431  54.7874 14.03608319961733"
      },
      "geometry": {
        "type": "Point",
        "coordinates": [
          -162.0976392208999,
          -24.376222942339687
        ]
      }
    },
    {
      "type": "Feature",
      "properties": {
        "norad_id": 29921,
        "name": "FENGYUN 1C DEB",
        "group": "fengyun-1c-debris",
        "lat": 80.30793572405008,
        "lon": -79.58283421879771,
        "alt_km": 829.93178501904,
        "timestamp": "2025-12-04T23:34:05.994892+00:00",
        "meta_object_name": "FENGYUN 1C DEB",
        "meta_object_id": "1999-025HT",
        "meta_epoch": "2025-12-03T18:59:48.439104",
        "meta_mean_motion": 14.06624033,
        "meta_eccentricity": 0.00464987,
        "meta_inclination": 98.7868,
        "meta_ra_of_asc_node": 344.1666,
        "meta_arg_of_pericenter": 94.3611,
        "meta_mean_anomaly": 86.5287,
        "meta_ephemeris_type": 0,
        "meta_classification_type": "U",
        "meta_norad_cat_id": 29921,
        "meta_element_set_no": 999,
        "meta_rev_at_epoch": 96750,
        "meta_bstar": 0.00050713263,
        "meta_mean_motion_dot": 8.07e-06,
        "meta_mean_motion_ddot": 0,
        "tle_line1": "1 29921U 99025HT  25337.79153286  .00000807  00000+0  50713-3 0  9992",
        "tle_line2": "2 29921  98.7868 344.1666 0046498  94.3611  86.5287 14.06624033967508"
      },
      "geometry": {
        "type": "Point",
        "coordinates": [
          -79.58283421879771,
          80.30793572405008
        ]
      }
    }
  ]
}